start=new Date('2022-10-26T00:00:00.000Z').valueOf();
sats=[{"ARG_OF_PERICENTER":"31.2805","PERIOD":"91.534","TLE_LINE2":"2 53931  53.2140  99.7861 0001905  31.2805 257.3245 15.73192140  1307","MEAN_ANOMALY":"257.3245","INCLINATION":"53.2140","MEAN_MOTION_DOT":"0.00024258","TIME_SYSTEM":"UTC","ELEMENT_SET_NO":"999","FILE":"3633327","MEAN_ELEMENT_THEORY":"SGP4","OBJECT_ID":"2022-119AX","DECAY_DATE":null,"OBJECT_NAME":"STARLINK-5015","CLASSIFICATION_TYPE":"U","REV_AT_EPOCH":"130","EPOCH":"2022-10-25T22:00:01.999584","SEMIMAJOR_AXIS":"6727.918","COUNTRY_CODE":"US","RA_OF_ASC_NODE":"99.7861","MEAN_MOTION":"15.73192140","CENTER_NAME":"EARTH","TLE_LINE1":"1 53931U 22119AX  22298.91668981  .00024258  00000-0  17681-3 0  9994","SITE":"AFETR","LAUNCH_DATE":"2022-09-24","NORAD_CAT_ID":"53931","MEAN_MOTION_DDOT":"0.0000000000000","ECCENTRICITY":"0.00019050","OBJECT_TYPE":"PAYLOAD","EPHEMERIS_TYPE":"0","RCS_SIZE":"LARGE","BSTAR":"0.00017681000000","REF_FRAME":"TEME","GP_ID":"216156989","APOAPSIS":"351.064","PERIAPSIS":"348.501"},{"CENTER_NAME":"EARTH","MEAN_MOTION":"15.73207646","TLE_LINE1":"1 53932U 22119AY  22298.91668981  .00067290  00000-0  47986-3 0  9999","SITE":"AFETR","LAUNCH_DATE":"2022-09-24","NORAD_CAT_ID":"53932","SEMIMAJOR_AXIS":"6727.873","COUNTRY_CODE":"US","RA_OF_ASC_NODE":"99.7898","RCS_SIZE":"LARGE","BSTAR":"0.00047986000000","REF_FRAME":"TEME","GP_ID":"216158021","APOAPSIS":"350.900","PERIAPSIS":"348.577","MEAN_MOTION_DDOT":"0.0000000000000","ECCENTRICITY":"0.00017260","OBJECT_TYPE":"PAYLOAD","EPHEMERIS_TYPE":"0","MEAN_MOTION_DOT":"0.00067290","TIME_SYSTEM":"UTC","ELEMENT_SET_NO":"999","ARG_OF_PERICENTER":"30.2652","PERIOD":"91.533","TLE_LINE2":"2 53932  53.2150  99.7898 0001726  30.2652 257.6843 15.73207646  1304","INCLINATION":"53.2150","MEAN_ANOMALY":"257.6843","OBJECT_NAME":"STARLINK-4772","DECAY_DATE":null,"CLASSIFICATION_TYPE":"U","REV_AT_EPOCH":"130","EPOCH":"2022-10-25T22:00:01.999584","FILE":"3633327","MEAN_ELEMENT_THEORY":"SGP4","OBJECT_ID":"2022-119AY"},{"OBJECT_ID":"2022-119AZ","FILE":"3633327","MEAN_ELEMENT_THEORY":"SGP4","REV_AT_EPOCH":"130","EPOCH":"2022-10-25T22:00:01.999584","DECAY_DATE":null,"OBJECT_NAME":"STARLINK-4782","CLASSIFICATION_TYPE":"U","TLE_LINE2":"2 53933  53.2148  99.7895 0001085  54.6780 232.0773 15.73203281  1309","PERIOD":"91.533","INCLINATION":"53.2148","MEAN_ANOMALY":"232.0773","ARG_OF_PERICENTER":"54.6780","ELEMENT_SET_NO":"999","TIME_SYSTEM":"UTC","MEAN_MOTION_DOT":"0.00039422","MEAN_MOTION_DDOT":"0.0000000000000","OBJECT_TYPE":"PAYLOAD","EPHEMERIS_TYPE":"0","ECCENTRICITY":"0.00010850","APOAPSIS":"350.481","GP_ID":"216157564","REF_FRAME":"TEME","PERIAPSIS":"349.021","RCS_SIZE":"LARGE","BSTAR":"0.00028394000000","SEMIMAJOR_AXIS":"6727.886","RA_OF_ASC_NODE":"99.7895","COUNTRY_CODE":"US","NORAD_CAT_ID":"53933","LAUNCH_DATE":"2022-09-24","SITE":"AFETR","TLE_LINE1":"1 53933U 22119AZ  22298.91668981  .00039422  00000-0  28394-3 0  9998","MEAN_MOTION":"15.73203281","CENTER_NAME":"EARTH"},{"LAUNCH_DATE":"2022-09-24","NORAD_CAT_ID":"53934","CENTER_NAME":"EARTH","MEAN_MOTION":"15.73182816","TLE_LINE1":"1 53934U 22119BA  22298.91668981  .00065385  00000-0  46701-3 0  9998","SITE":"AFETR","COUNTRY_CODE":"US","RA_OF_ASC_NODE":"99.7845","SEMIMAJOR_AXIS":"6727.944","PERIAPSIS":"348.802","GP_ID":"216157232","REF_FRAME":"TEME","APOAPSIS":"350.816","BSTAR":"0.00046701000000","RCS_SIZE":"LARGE","ECCENTRICITY":"0.00014970","OBJECT_TYPE":"PAYLOAD","EPHEMERIS_TYPE":"0","MEAN_MOTION_DDOT":"0.0000000000000","TIME_SYSTEM":"UTC","ELEMENT_SET_NO":"999","MEAN_MOTION_DOT":"0.00065385","MEAN_ANOMALY":"242.3835","INCLINATION":"53.2148","PERIOD":"91.534","TLE_LINE2":"2 53934  53.2148  99.7845 0001497  46.7958 242.3835 15.73182816  1304","ARG_OF_PERICENTER":"46.7958","EPOCH":"2022-10-25T22:00:01.999584","REV_AT_EPOCH":"130","CLASSIFICATION_TYPE":"U","DECAY_DATE":null,"OBJECT_NAME":"STARLINK-4775","OBJECT_ID":"2022-119BA","MEAN_ELEMENT_THEORY":"SGP4","FILE":"3633327"},{"OBJECT_ID":"2022-119BB","FILE":"3633327","MEAN_ELEMENT_THEORY":"SGP4","REV_AT_EPOCH":"130","EPOCH":"2022-10-25T22:00:01.999584","OBJECT_NAME":"STARLINK-5000","DECAY_DATE":null,"CLASSIFICATION_TYPE":"U","TLE_LINE2":"2 53935  53.2148  99.7862 0001343  57.9512 232.4178 15.73198898  1301","PERIOD":"91.533","INCLINATION":"53.2148","MEAN_ANOMALY":"232.4178","ARG_OF_PERICENTER":"57.9512","ELEMENT_SET_NO":"999","TIME_SYSTEM":"UTC","MEAN_MOTION_DOT":"0.00081556","MEAN_MOTION_DDOT":"0.0000000000000","OBJECT_TYPE":"PAYLOAD","EPHEMERIS_TYPE":"0","ECCENTRICITY":"0.00013430","APOAPSIS":"350.667","GP_ID":"216157407","REF_FRAME":"TEME","PERIAPSIS":"348.860","RCS_SIZE":"LARGE","BSTAR":"0.00057991000000","SEMIMAJOR_AXIS":"6727.898","RA_OF_ASC_NODE":"99.7862","COUNTRY_CODE":"US","NORAD_CAT_ID":"53935","LAUNCH_DATE":"2022-09-24","SITE":"AFETR","TLE_LINE1":"1 53935U 22119BB  22298.91668981  .00081556  00000-0  57991-3 0  9990","CENTER_NAME":"EARTH","MEAN_MOTION":"15.73198898"},{"LAUNCH_DATE":"2022-09-24","NORAD_CAT_ID":"53936","MEAN_MOTION":"15.73163938","CENTER_NAME":"EARTH","SITE":"AFETR","TLE_LINE1":"1 53936U 22119BC  22298.91668981  .00064715  00000-0  46268-3 0  9994","SEMIMAJOR_AXIS":"6727.998","COUNTRY_CODE":"US","RA_OF_ASC_NODE":"99.7847","REF_FRAME":"TEME","GP_ID":"216157740","APOAPSIS":"350.625","PERIAPSIS":"349.101","BSTAR":"0.00046268000000","RCS_SIZE":"LARGE","MEAN_MOTION_DDOT":"0.0000000000000","ECCENTRICITY":"0.00011330","EPHEMERIS_TYPE":"0","OBJECT_TYPE":"PAYLOAD","TIME_SYSTEM":"UTC","ELEMENT_SET_NO":"999","MEAN_MOTION_DOT":"0.00064715","PERIOD":"91.535","TLE_LINE2":"2 53936  53.2150  99.7847 0001133  45.5199 244.2413 15.73163938  1309","INCLINATION":"53.2150","MEAN_ANOMALY":"244.2413","ARG_OF_PERICENTER":"45.5199","REV_AT_EPOCH":"130","EPOCH":"2022-10-25T22:00:01.999584","DECAY_DATE":null,"OBJECT_NAME":"STARLINK-4791","CLASSIFICATION_TYPE":"U","OBJECT_ID":"2022-119BC","FILE":"3633327","MEAN_ELEMENT_THEORY":"SGP4"},{"SEMIMAJOR_AXIS":"6727.881","RA_OF_ASC_NODE":"99.7826","COUNTRY_CODE":"US","NORAD_CAT_ID":"53937","LAUNCH_DATE":"2022-09-24","SITE":"AFETR","TLE_LINE1":"1 53937U 22119BD  22298.91668981  .00065219  00000-0  46538-3 0  9995","MEAN_MOTION":"15.73204890","CENTER_NAME":"EARTH","MEAN_MOTION_DDOT":"0.0000000000000","OBJECT_TYPE":"PAYLOAD","EPHEMERIS_TYPE":"0","ECCENTRICITY":"0.00022160","APOAPSIS":"351.237","GP_ID":"216157846","REF_FRAME":"TEME","PERIAPSIS":"348.255","RCS_SIZE":"LARGE","BSTAR":"0.00046538000000","TLE_LINE2":"2 53937  53.2155  99.7826 0002216  24.7985 266.1252 15.73204890  1304","PERIOD":"91.533","INCLINATION":"53.2155","MEAN_ANOMALY":"266.1252","ARG_OF_PERICENTER":"24.7985","ELEMENT_SET_NO":"999","TIME_SYSTEM":"UTC","MEAN_MOTION_DOT":"0.00065219","OBJECT_ID":"2022-119BD","FILE":"3633327","MEAN_ELEMENT_THEORY":"SGP4","REV_AT_EPOCH":"130","EPOCH":"2022-10-25T22:00:01.999584","OBJECT_NAME":"STARLINK-4765","DECAY_DATE":null,"CLASSIFICATION_TYPE":"U"},{"MEAN_MOTION_DOT":"-0.01190068","TIME_SYSTEM":"UTC","ELEMENT_SET_NO":"999","ARG_OF_PERICENTER":"45.6945","PERIOD":"92.369","TLE_LINE2":"2 53964  53.2175 353.1537 0001333  45.6945 256.0563 15.58965150  1308","MEAN_ANOMALY":"256.0563","INCLINATION":"53.2175","OBJECT_NAME":"STARLINK-4633","DECAY_DATE":null,"CLASSIFICATION_TYPE":"U","REV_AT_EPOCH":"130","EPOCH":"2022-10-25T22:00:01.999584","FILE":"3633327","MEAN_ELEMENT_THEORY":"SGP4","OBJECT_ID":"2022-125A","MEAN_MOTION":"15.58965150","CENTER_NAME":"EARTH","TLE_LINE1":"1 53964U 22125A   22298.91668981 -.01190068  00000-0 -16722-1 0  9996","SITE":"AFWTR","LAUNCH_DATE":"2022-10-05","NORAD_CAT_ID":"53964","SEMIMAJOR_AXIS":"6768.788","COUNTRY_CODE":"US","RA_OF_ASC_NODE":"353.1537","RCS_SIZE":"LARGE","BSTAR":"-0.01672200000000","GP_ID":"216156817","REF_FRAME":"TEME","APOAPSIS":"391.555","PERIAPSIS":"389.751","MEAN_MOTION_DDOT":"0.0000000000000","ECCENTRICITY":"0.00013330","OBJECT_TYPE":"PAYLOAD","EPHEMERIS_TYPE":"0"},{"OBJECT_ID":"2022-125B","FILE":"3633327","MEAN_ELEMENT_THEORY":"SGP4","REV_AT_EPOCH":"130","EPOCH":"2022-10-25T22:00:01.999584","OBJECT_NAME":"STARLINK-4578","DECAY_DATE":null,"CLASSIFICATION_TYPE":"U","PERIOD":"92.367","TLE_LINE2":"2 53965  53.2175 353.1507 0001471  37.6530 265.4447 15.59003329  1307","INCLINATION":"53.2175","MEAN_ANOMALY":"265.4447","ARG_OF_PERICENTER":"37.6530","TIME_SYSTEM":"UTC","ELEMENT_SET_NO":"999","MEAN_MOTION_DOT":"-0.01190849","MEAN_MOTION_DDOT":"0.0000000000000","ECCENTRICITY":"0.00014710","OBJECT_TYPE":"PAYLOAD","EPHEMERIS_TYPE":"0","REF_FRAME":"TEME","GP_ID":"216156992","APOAPSIS":"391.538","PERIAPSIS":"389.547","RCS_SIZE":"LARGE","BSTAR":"-0.01670900000000","SEMIMAJOR_AXIS":"6768.677","COUNTRY_CODE":"US","RA_OF_ASC_NODE":"353.1507","LAUNCH_DATE":"2022-10-05","NORAD_CAT_ID":"53965","CENTER_NAME":"EARTH","MEAN_MOTION":"15.59003329","SITE":"AFWTR","TLE_LINE1":"1 53965U 22125B   22298.91668981 -.01190849  00000-0 -16709-1 0  9999"},{"BSTAR":"-0.01667900000000","RCS_SIZE":"LARGE","PERIAPSIS":"389.397","APOAPSIS":"391.407","GP_ID":"216158024","REF_FRAME":"TEME","OBJECT_TYPE":"PAYLOAD","EPHEMERIS_TYPE":"0","ECCENTRICITY":"0.00014850","MEAN_MOTION_DDOT":"0.0000000000000","SITE":"AFWTR","TLE_LINE1":"1 53966U 22125C   22298.91668981 -.01190918  00000-0 -16679-1 0  9993","MEAN_MOTION":"15.59051861","CENTER_NAME":"EARTH","NORAD_CAT_ID":"53966","LAUNCH_DATE":"2022-10-05","RA_OF_ASC_NODE":"353.1478","COUNTRY_CODE":"US","SEMIMAJOR_AXIS":"6768.537","CLASSIFICATION_TYPE":"U","OBJECT_NAME":"STARLINK-4635","DECAY_DATE":null,"EPOCH":"2022-10-25T22:00:01.999584","REV_AT_EPOCH":"130","MEAN_ELEMENT_THEORY":"SGP4","FILE":"3633327","OBJECT_ID":"2022-125C","MEAN_MOTION_DOT":"-0.01190918","ELEMENT_SET_NO":"999","TIME_SYSTEM":"UTC","ARG_OF_PERICENTER":"36.4660","INCLINATION":"53.2175","MEAN_ANOMALY":"268.1923","TLE_LINE2":"2 53966  53.2175 353.1478 0001485  36.4660 268.1923 15.59051861  1304","PERIOD":"92.364"}];
